NORAD_CAT_ID,OBJECT_NAME,OBJECT_TYPE,EPOCH,MEAN_MOTION,ECCENTRICITY,INCLINATION,RA_OF_ASC_NODE,ARG_OF_PERICENTER,MEAN_ANOMALY,BSTAR,MEAN_MOTION_DOT,MEAN_MOTION_DDOT,TLE_LINE0,TLE_LINE1,TLE_LINE2,SEMIMAJOR_AXIS,PERIOD,APOGEE,PERIGEE,DECAYED
49427.0,STARLINK-3131,PAYLOAD,2023-11-07 16:46:33,15.08819883,0.0001021,53.2151,98.3511,87.2678,272.8431,-0.00035565,-5.94e-05,0.0,0 STARLINK-3131,1 49427U 21104V   23311.69900035 -.00005940  00000-0 -35565-3 0  9993,2 49427  53.2151  98.3511 0001021  87.2678 272.8431 15.08819883110958,6917.942,95.439,540.513,539.101,0.0
49427.0,STARLINK-3131,PAYLOAD,2023-11-08 13:26:34,15.08830965,0.0001108,53.2159,94.4868,93.2065,266.9054,0.00012765,1.744e-05,0.0,0 STARLINK-3131,1 49427U 21104V   23312.56012550  .00001744  00000-0  12765-3 0  9999,2 49427  53.2159  94.4868 0001108  93.2065 266.9054 15.08830965109992,6917.908,95.438,540.54,539.007,0.0
49427.0,STARLINK-3131,PAYLOAD,2023-11-08 16:37:20,15.0883942,0.000114,53.216,93.8948,95.5061,264.6061,0.00032249,4.848e-05,0.0,0 STARLINK-3131,1 49427U 21104V   23312.69260397  .00004848  00000-0  32249-3 0  9994,2 49427  53.2160  93.8948 0001140  95.5061 264.6061 15.08839420111107,6917.882,95.438,540.536,538.959,0.0
49427.0,STARLINK-3131,PAYLOAD,2023-11-09 08:31:12,15.08837715,8.73e-05,53.2155,90.9209,92.8536,267.2556,0.00043071,6.573e-05,0.0,0 STARLINK-3131,1 49427U 21104V   23313.35500775  .00006573  00000-0  43071-3 0  9997,2 49427  53.2155  90.9209 0000873  92.8536 267.2556 15.08837715111202,6917.887,95.438,540.356,539.148,0.0
49427.0,STARLINK-3131,PAYLOAD,2023-11-09 13:17:22,15.08839312,9.06e-05,53.2158,90.0287,88.628,271.4816,0.00035349,5.342e-05,0.0,0 STARLINK-3131,1 49427U 21104V   23313.55372751  .00005342  00000-0  35349-3 0  9992,2 49427  53.2158  90.0287 0000906  88.6280 271.4816 15.08839312110141,6917.882,95.438,540.374,539.121,0.0
49427.0,STARLINK-3131,PAYLOAD,2023-11-09 16:28:08,15.0884216,8.73e-05,53.2157,89.4341,91.7185,268.3907,0.00034894,5.27e-05,0.0,0 STARLINK-3131,1 49427U 21104V   23313.68620619  .00005270  00000-0  34894-3 0  9999,2 49427  53.2157  89.4341 0000873  91.7185 268.3907 15.08842160110168,6917.874,95.437,540.343,539.135,0.0
49427.0,STARLINK-3131,PAYLOAD,2023-11-10 08:21:59,15.08838849,0.0001339,53.2175,86.4613,97.1168,262.9976,6.2373e-05,7.05e-06,0.0,0 STARLINK-3131,1 49427U 21104V   23314.34860935  .00000705  00000-0  62373-4 0  9992,2 49427  53.2175  86.4613 0001339  97.1168 262.9976 15.08838849111353,6917.884,95.438,540.675,538.823,0.0
49427.0,STARLINK-3131,PAYLOAD,2023-11-10 14:43:32,15.08835137,0.0001245,53.2153,85.2695,94.8345,265.2789,-0.00012028,-2.201e-05,0.0,0 STARLINK-3131,1 49427U 21104V   23314.61356906 -.00002201  00000-0 -12028-3 0  9996,2 49427  53.2153  85.2695 0001245  94.8345 265.2789 15.08835137110302,6917.895,95.438,540.622,538.899,0.0
49427.0,STARLINK-3131,PAYLOAD,2023-11-10 16:18:55,15.0883918,0.0001072,53.2156,84.9706,82.4154,277.696,1.9027e-05,1.5e-07,0.0,0 STARLINK-3131,1 49427U 21104V   23314.67980814  .00000015  00000-0  19027-4 0  9999,2 49427  53.2156  84.9706 0001072  82.4154 277.6960 15.08839180110314,6917.883,95.438,540.489,539.006,0.0
49427.0,STARLINK-3131,PAYLOAD,2023-11-11 12:58:56,15.08843567,0.0001051,53.2153,81.1063,84.4089,275.7023,0.00018922,2.725e-05,0.0,0 STARLINK-3131,1 49427U 21104V   23315.54092849  .00002725  00000-0  18922-3 0  9990,2 49427  53.2153  81.1063 0001051  84.4089 275.7023 15.08843567110449,6917.869,95.437,540.462,539.007,0.0
49427.0,STARLINK-3131,PAYLOAD,2023-11-12 14:25:06,15.08841616,0.000101,53.2154,76.3489,95.2764,264.8344,0.00020995,3.055e-05,0.0,0 STARLINK-3131,1 49427U 21104V   23316.60077040  .00003055  00000-0  20995-3 0  9994,2 49427  53.2154  76.3489 0001010  95.2764 264.8344 15.08841616110609,6917.875,95.437,540.439,539.042,0.0
49427.0,STARLINK-3131,PAYLOAD,2023-11-13 12:40:29,15.08852863,0.0001103,53.2154,72.1854,96.4221,263.6897,0.00019996,2.897e-05,0.0,0 STARLINK-3131,1 49427U 21104V   23317.52812212  .00002897  00000-0  19996-3 0  9996,2 49427  53.2154  72.1854 0001103  96.4221 263.6897 15.08852863110744,6917.841,95.437,540.469,538.943,0.0
49427.0,STARLINK-3131,PAYLOAD,2023-11-14 01:23:34,15.08848022,0.0001054,53.2155,69.8071,88.4731,271.6382,0.0002224,3.254e-05,0.0,0 STARLINK-3131,1 49427U 21104V   23318.05804219  .00003254  00000-0  22240-3 0  9997,2 49427  53.2155  69.8071 0001054  88.4731 271.6382 15.08848022111911,6917.856,95.437,540.45,538.992,0.0
49427.0,STARLINK-3131,PAYLOAD,2023-11-14 10:55:54,15.08839501,0.0001899,53.216,68.019,114.7341,245.3849,3.5786e-05,2.81e-06,0.0,0 STARLINK-3131,1 49427U 21104V   23318.45548827  .00000281  00000-0  35786-4 0  9998,2 49427  53.2160  68.0190 0001899 114.7341 245.3849 15.08839501111971,6917.882,95.438,541.061,538.433,0.0
49427.0,STARLINK-3131,PAYLOAD,2023-11-14 12:31:17,15.08835392,0.0001275,53.2155,67.7246,103.3726,256.7408,3.6575e-06,-2.3e-06,0.0,0 STARLINK-3131,1 49427U 21104V   23318.52172924 -.00000230  00000-0  36575-5 0  9990,2 49427  53.2155  67.7246 0001275 103.3726 256.7408 15.08835392110893,6917.894,95.438,540.642,538.877,0.0
49427.0,STARLINK-3131,PAYLOAD,2023-11-15 12:22:04,15.08843479,0.0001279,53.2158,63.2642,102.4019,257.7117,5.6762e-05,6.16e-06,0.0,0 STARLINK-3131,1 49427U 21104V   23319.51532692  .00000616  00000-0  56762-4 0  9998,2 49427  53.2158  63.2642 0001279 102.4019 257.7117 15.08843479112138,6917.87,95.437,540.62,538.85,0.0
49427.0,STARLINK-3131,PAYLOAD,2023-11-15 23:29:45,15.08859188,0.0001236,53.2158,61.1835,109.6054,250.5072,-0.00045189,-7.476e-05,0.0,0 STARLINK-3131,1 49427U 21104V   23319.97899568 -.00007476  00000-0 -45189-3 0  9999,2 49427  53.2158  61.1835 0001236 109.6054 250.5072 15.08859188112203,6917.822,95.436,540.542,538.832,0.0
49427.0,STARLINK-3131,PAYLOAD,2023-11-16 07:26:42,15.08833129,0.000132,53.2162,59.6967,90.4733,269.641,0.00018889,2.719e-05,0.0,0 STARLINK-3131,1 49427U 21104V   23320.31021493  .00002719  00000-0  18889-3 0  9993,2 49427  53.2162  59.6967 0001320  90.4733 269.6410 15.08833129112250,6917.901,95.438,540.68,538.853,0.0
49427.0,STARLINK-3131,PAYLOAD,2023-11-17 12:03:39,15.08836145,0.0001554,53.2184,54.3458,80.7135,279.4032,-1.9037e-05,-5.91e-06,0.0,0 STARLINK-3131,1 49427U 21104V   23321.50253556 -.00000591  00000-0 -19037-4 0  9997,2 49427  53.2184  54.3458 0001554  80.7135 279.4032 15.08836145112438,6917.892,95.438,540.832,538.682,0.0
49427.0,STARLINK-3131,PAYLOAD,2023-11-18 11:54:26,15.08843472,0.0001568,53.2201,49.8851,86.3393,273.7778,0.00010287,1.35e-05,0.0,0 STARLINK-3131,1 49427U 21104V   23322.49613530  .00001350  00000-0  10287-3 0  9997,2 49427  53.2201  49.8851 0001568  86.3393 273.7778 15.08843472111497,6917.87,95.437,540.819,538.65,0.0
49427.0,STARLINK-3131,PAYLOAD,2023-11-18 23:02:08,15.08837425,0.000142,53.219,47.8032,83.9086,276.2068,0.00015123,2.12e-05,0.0,0 STARLINK-3131,1 49427U 21104V   23322.95981644  .00002120  00000-0  15123-3 0  9992,2 49427  53.2190  47.8032 0001420  83.9086 276.2068 15.08837425112652,6917.888,95.438,540.736,538.771,0.0
49427.0,STARLINK-3131,PAYLOAD,2023-11-19 13:20:36,15.08842021,0.0001449,53.2186,45.1269,84.6153,275.5004,0.00013458,1.855e-05,0.0,0 STARLINK-3131,1 49427U 21104V   23323.55597645  .00001855  00000-0  13458-3 0  9996,2 49427  53.2186  45.1269 0001449  84.6153 275.5004 15.08842021111653,6917.874,95.437,540.742,538.737,0.0
49427.0,STARLINK-3131,PAYLOAD,2023-11-20 00:28:18,15.08844045,0.0001474,53.2183,43.046,83.9905,276.1255,9.1318e-05,1.166e-05,0.0,0 STARLINK-3131,1 49427U 21104V   23324.01965532  .00001166  00000-0  91318-4 0  9999,2 49427  53.2183  43.0460 0001474  83.9905 276.1255 15.08844045112817,6917.868,95.437,540.753,538.713,0.0
49427.0,STARLINK-3131,PAYLOAD,2023-11-20 11:36:00,15.08845408,0.0001354,53.218,40.964,86.2442,273.8705,0.00010964,1.458e-05,0.0,0 STARLINK-3131,1 49427U 21104V   23324.48333352  .00001458  00000-0  10964-3 0  9990,2 49427  53.2180  40.9640 0001354  86.2442 273.8705 15.08845408111793,6917.864,95.437,540.666,538.792,0.0
49427.0,STARLINK-3131,PAYLOAD,2023-11-21 11:26:46,15.0884595,0.0001356,53.2187,36.5037,90.7633,269.3515,0.00010132,1.325e-05,0.0,0 STARLINK-3131,1 49427U 21104V   23325.47693085  .00001325  00000-0  10132-3 0  9992,2 49427  53.2187  36.5037 0001356  90.7633 269.3515 15.08845950113035,6917.862,95.437,540.665,538.789,0.0
49427.0,STARLINK-3131,PAYLOAD,2023-11-21 14:37:32,15.08851059,0.0001517,53.2171,35.9061,105.0528,255.0632,0.00012438,1.693e-05,0.0,0 STARLINK-3131,1 49427U 21104V   23325.60940612  .00001693  00000-0  12438-3 0  9997,2 49427  53.2171  35.9061 0001517 105.0528 255.0632 15.08851059111969,6917.847,95.437,540.761,538.662,0.0
49427.0,STARLINK-3131,PAYLOAD,2023-11-22 11:17:33,15.08848114,0.000146,53.218,32.0446,96.6696,263.4462,0.00014037,1.947e-05,0.0,0 STARLINK-3131,1 49427U 21104V   23326.47052949  .00001947  00000-0  14037-3 0  9999,2 49427  53.2180  32.0446 0001460  96.6696 263.4462 15.08848114112099,6917.856,95.437,540.731,538.711,0.0
49427.0,STARLINK-3131,PAYLOAD,2023-11-23 00:00:39,15.08837516,0.0001763,53.2181,29.6637,125.9033,234.2123,3.5085e-05,2.7e-06,0.0,0 STARLINK-3131,1 49427U 21104V   23327.00045365  .00000270  00000-0  35085-4 0  9998,2 49427  53.2181  29.6637 0001763 125.9033 234.2123 15.08837516113265,6917.888,95.438,540.973,538.533,0.0
49427.0,STARLINK-3131,PAYLOAD,2023-11-23 11:08:21,15.08832611,0.0001422,53.2178,27.5831,105.068,255.047,-3.0288e-05,-7.7e-06,0.0,0 STARLINK-3131,1 49427U 21104V   23327.46413877 -.00000770  00000-0 -30288-4 0  9992,2 49427  53.2178  27.5831 0001422 105.0680 255.0470 15.08832611112247,6917.903,95.438,540.752,538.784,0.0
49427.0,STARLINK-3131,PAYLOAD,2023-11-24 09:23:46,15.08828852,0.0001292,53.2173,23.4201,81.9949,278.119,3.064e-06,-2.39e-06,0.0,0 STARLINK-3131,1 49427U 21104V   23328.39150666 -.00000239  00000-0  30640-5 0  9991,2 49427  53.2173  23.4201 0001292  81.9949 278.1190 15.08828852112385,6917.914,95.438,540.673,538.886,0.0
